NORAD_CAT_ID,OBJECT_NAME,OBJECT_TYPE,EPOCH,MEAN_MOTION,ECCENTRICITY,INCLINATION,RA_OF_ASC_NODE,ARG_OF_PERICENTER,MEAN_ANOMALY,BSTAR,MEAN_MOTION_DOT,MEAN_MOTION_DDOT,TLE_LINE0,TLE_LINE1,TLE_LINE2,SEMIMAJOR_AXIS,PERIOD,APOGEE,PERIGEE,DECAYED
49134.0,STARLINK-3078,PAYLOAD,2022-12-25 06:44:49,14.983337400000002,0.0003049,70.002,5.4807,269.7117,90.3693,7.1529e-05,7.61e-06,0.0,0 STARLINK-3078,1 49134U 21082E   22359.28113055  .00000761  00000-0  71529-4 0  9992,2 49134  70.0020   5.4807 0003049 269.7117  90.3693 14.98333740 71869,6950.181,96.107,574.165,569.927,0.0
49134.0,STARLINK-3078,PAYLOAD,2022-12-25 08:20:57,14.98332521,0.0003068,70.0019,5.3125,269.5698,90.511,8.5478e-05,9.27e-06,0.0,0 STARLINK-3078,1 49134U 21082E   22359.34789125  .00000927  00000-0  85478-4 0  9998,2 49134  70.0019   5.3125 0003068 269.5698  90.5110 14.98332521 71875,6950.185,96.107,574.182,569.918,0.0
49134.0,STARLINK-3078,PAYLOAD,2022-12-25 17:57:45,14.98335792,0.0003098,70.002,4.3025,270.2962,89.7842,0.0001095999999999,1.215e-05,0.0,0 STARLINK-3078,1 49134U 21082E   22359.74844893  .00001215  00000-0  10960-3 0  9990,2 49134  70.0020   4.3025 0003098 270.2962  89.7842 14.98335792 71933,6950.175,96.107,574.193,569.887,0.0
49134.0,STARLINK-3078,PAYLOAD,2022-12-26 11:35:14,14.98329973,0.0003149,70.0019,2.451,270.5239,89.5559,-4.6982e-05,-6.54e-06,0.0,0 STARLINK-3078,1 49134U 21082E   22360.48281070 -.00000654  00000-0 -46982-4 0  9997,2 49134  70.0019   2.4510 0003149 270.5239  89.5559 14.98329973 72046,6950.193,96.107,574.247,569.869,0.0
49134.0,STARLINK-3078,PAYLOAD,2022-12-26 17:59:47,14.98332472,0.000306,70.0007,1.7779,270.0684,90.0124,7.139e-07,-8.4e-07,0.0,0 STARLINK-3078,1 49134U 21082E   22360.74985329 -.00000084  00000-0  71390-6 0  9993,2 49134  70.0007   1.7779 0003060 270.0684  90.0124 14.98332472 72080,6950.185,96.107,574.177,569.923,0.0
49134.0,STARLINK-3078,PAYLOAD,2022-12-27 11:37:15,14.98338698,0.0003107,70.0021,359.9264,270.9177,89.1626,0.00027174,3.152e-05,0.0,0 STARLINK-3078,1 49134U 21082E   22361.48420717  .00003152  00000-0  27174-3 0  9996,2 49134  70.0021 359.9264 0003107 270.9177  89.1626 14.98338698 72195,6950.166,96.106,574.19,569.872,0.0
49134.0,STARLINK-3078,PAYLOAD,2022-12-27 18:01:47,14.98341564,0.0003068,70.0021,359.2531,271.069,89.0118,0.00028678,3.331e-05,0.0,0 STARLINK-3078,1 49134U 21082E   22361.75124504  .00003331  00000-0  28678-3 0  9990,2 49134  70.0021 359.2531 0003068 271.0690  89.0118 14.98341564 72239,6950.156999999997,96.106,574.154,569.89,0.0
49134.0,STARLINK-3078,PAYLOAD,2022-12-28 10:03:08,14.98338778,0.0003097,70.0025,357.5696,271.027,89.0535,0.00018218,2.082e-05,0.0,0 STARLINK-3078,1 49134U 21082E   22362.41884302  .00002082  00000-0  18218-3 0  9994,2 49134  70.0025 357.5696 0003097 271.0270  89.0535 14.98338778 72339,6950.166,96.106,574.183,569.878,0.0
49134.0,STARLINK-3078,PAYLOAD,2022-12-29 02:04:28,14.98336079,0.0002787,70.0028,355.8865,266.5746,93.5094,5.0854e-05,5.14e-06,0.0,0 STARLINK-3078,1 49134U 21082E   22363.08644273  .00000514  00000-0  50854-4 0  9990,2 49134  70.0028 355.8865 0002787 266.5746  93.5094 14.98336079 72436,6950.174,96.107,573.976,570.102,0.0
49134.0,STARLINK-3078,PAYLOAD,2022-12-29 11:41:17,14.98328515,0.0003018999999999,70.0025,354.8765,271.2556,88.8257,-0.00010508,-1.346e-05,0.0,0 STARLINK-3078,1 49134U 21082E   22363.48700586 -.00001346  00000-0 -10508-3 0  9991,2 49134  70.0025 354.8765 0003019 271.2556  88.8257 14.98328515 72492,6950.196999999999,96.107,574.161,569.964,0.0
49134.0,STARLINK-3078,PAYLOAD,2022-12-30 05:18:45,14.9834101,0.0003009,70.0003,353.0251,270.6157,89.4657,4.7222e-05,4.71e-06,0.0,0 STARLINK-3078,1 49134U 21082E   22364.22136168  .00000471  00000-0  47222-4 0  9993,2 49134  70.0003 353.0251 0003009 270.6157  89.4657 14.98341010 72607,6950.159000000002,96.106,574.115,569.933,0.0
49134.0,STARLINK-3078,PAYLOAD,2022-12-30 10:07:10,14.98334772,0.0002867,70.0019,352.5198,268.801,91.2821,0.00040854,4.786e-05,0.0,0 STARLINK-3078,1 49134U 21082E   22364.42164433  .00004786  00000-0  40854-3 0  9997,2 49134  70.0019 352.5198 0002867 268.8010  91.2821 14.98334772 72630,6950.178000000001,96.107,574.036,570.0509999999998,0.0
49134.0,STARLINK-3078,PAYLOAD,2022-12-31 05:20:46,14.98338952,0.000303,70.0024,350.5001,271.2285,88.8527,0.00029711,3.455e-05,0.0,0 STARLINK-3078,1 49134U 21082E   22365.22275899  .00003455  00000-0  29711-3 0  9996,2 49134  70.0024 350.5001 0003030 271.2285  88.8527 14.98338952 72754,6950.165,96.106,574.136,569.924,0.0
49134.0,STARLINK-3078,PAYLOAD,2022-12-31 10:09:10,14.98342107,0.0003026,70.0024,349.9951,271.1879,88.8933,0.00032406,3.777e-05,0.0,0 STARLINK-3078,1 49134U 21082E   22365.42303681  .00003777  00000-0  32406-3 0  9991,2 49134  70.0024 349.9951 0003026 271.1879  88.8933 14.98342107 72784,6950.155,96.106,574.124,569.9169999999998,0.0
49134.0,STARLINK-3078,PAYLOAD,2022-12-31 16:33:42,14.98339097,0.0003069,70.0023,349.3218,271.5387,88.5421,0.00015339,1.738e-05,0.0,0 STARLINK-3078,1 49134U 21082E   22365.69007598  .00001738  00000-0  15339-3 0  9999,2 49134  70.0023 349.3218 0003069 271.5387  88.5421 14.98339097 72826,6950.165,96.106,574.163,569.8969999999998,0.0
49134.0,STARLINK-3078,PAYLOAD,2023-01-01 05:22:47,14.9833279,0.0003018999999999,70.0023,347.9745,270.7297,89.3516,-3.6389e-05,-5.27e-06,0.0,0 STARLINK-3078,1 49134U 21082E   23001.22415736 -.00000527  00000-0 -36389-4 0  9999,2 49134  70.0023 347.9745 0003019 270.7297  89.3516 14.98332790 72907,6950.184,96.107,574.148,569.951,0.0
49134.0,STARLINK-3078,PAYLOAD,2023-01-01 10:11:12,14.98324552,0.0003213,70.0009,347.4702,271.4206,88.6585,-6.8004e-05,-9.04e-06,0.0,0 STARLINK-3078,1 49134U 21082E   23001.42444725 -.00000904  00000-0 -68004-4 0  9999,2 49134  70.0009 347.4702 0003213 271.4206  88.6585 14.98324552 72931,6950.21,96.107,574.308,569.842,0.0
49134.0,STARLINK-3078,PAYLOAD,2023-01-01 16:35:44,14.98329224,0.0003151999999999,70.0009,346.7969,271.0069,89.0729,-7.6564e-05,-1.006e-05,0.0,0 STARLINK-3078,1 49134U 21082E   23001.69148487 -.00001006  00000-0 -76564-4 0  9998,2 49134  70.0009 346.7969 0003152 271.0069  89.0729 14.98329224 72973,6950.195,96.107,574.251,569.87,0.0
49134.0,STARLINK-3078,PAYLOAD,2023-01-02 00:36:24,14.98332389,0.0003246,70.0007,345.9552,270.5556,89.5231,-2.1103e-05,-3.45e-06,0.0,0 STARLINK-3078,1 49134U 21082E   23002.02528144 -.00000345  00000-0 -21103-4 0  9992,2 49134  70.0007 345.9552 0003246 270.5556  89.5231 14.98332389 73025,6950.186,96.107,574.307,569.794,0.0
49134.0,STARLINK-3078,PAYLOAD,2023-01-02 10:13:12,14.98336488,0.0003168,70.0009,344.9454,271.0101,89.0695,0.000111,1.232e-05,0.0,0 STARLINK-3078,1 49134U 21082E   23002.42583697  .00001232  00000-0  11100-3 0  9999,2 49134  70.0009 344.9454 0003168 271.0101  89.0695 14.98336488 73081,6950.1730000000025,96.107,574.24,569.836,0.0
49134.0,STARLINK-3078,PAYLOAD,2023-01-02 16:37:44,14.98335352,0.00031,70.0009,344.2721,271.594,88.4864,7.5441e-05,8.07e-06,0.0,0 STARLINK-3078,1 49134U 21082E   23002.69287810  .00000807  00000-0  75441-4 0  9992,2 49134  70.0009 344.2721 0003100 271.5940  88.4864 14.98335352 73128,6950.176,96.107,574.196,569.887,0.0
49134.0,STARLINK-3078,PAYLOAD,2023-01-03 05:26:49,14.98327056,0.0003091,70.0007,342.925,268.4386,91.6419,0.00012006,1.34e-05,0.0,0 STARLINK-3078,1 49134U 21082E   23003.22696488  .00001340  00000-0  12006-3 0  9997,2 49134  70.0007 342.9250 0003091 268.4386  91.6419 14.98327056 73209,6950.2019999999975,96.107,574.215,569.919,0.0
49134.0,STARLINK-3078,PAYLOAD,2023-01-03 07:02:57,14.98328606,0.0003103,70.0005,342.7566,266.7795,93.3009,0.00012982,1.456e-05,0.0,0 STARLINK-3078,1 49134U 21082E   23003.29372364  .00001456  00000-0  12982-3 0  9999,2 49134  70.0005 342.7566 0003103 266.7795  93.3009 14.98328606 73211,6950.196999999999,96.107,574.219,569.906,0.0
49134.0,STARLINK-3078,PAYLOAD,2023-01-04 08:41:07,14.98330314,0.0003138,70.0006,340.0641,269.4532,90.6267,8.5432e-05,9.27e-06,0.0,0 STARLINK-3078,1 49134U 21082E   23004.36188697  .00000927  00000-0  85432-4 0  9995,2 49134  70.0006 340.0641 0003138 269.4532  90.6267 14.98330314 73376,6950.191999999999,96.107,574.238,569.876,0.0
49134.0,STARLINK-3078,PAYLOAD,2023-01-04 15:05:38,14.9833892,0.0003164,70.0008,339.3908,270.1109,89.9687,0.00013233,1.487e-05,0.0,0 STARLINK-3078,1 49134U 21082E   23004.62892030  .00001487  00000-0  13233-3 0  9998,2 49134  70.0008 339.3908 0003164 270.1109  89.9687 14.98338920 73416,6950.165,96.106,574.229,569.831,0.0
49134.0,STARLINK-3078,PAYLOAD,2023-01-05 08:43:06,14.98346604,0.0003143999999999,70.0018,337.5389,268.7564,91.3235,0.00037015,4.328e-05,0.0,0 STARLINK-3078,1 49134U 21082E   23005.36327405  .00004328  00000-0  37015-3 0  9990,2 49134  70.0018 337.5389 0003144 268.7564  91.3235 14.98346604 73522,6950.142,96.106,574.192,569.821,0.0
49134.0,STARLINK-3078,PAYLOAD,2023-01-05 15:07:39,14.98342204,0.00029,70.0026,336.8662,274.761,85.3218,0.00021037,2.419e-05,0.0,0 STARLINK-3078,1 49134U 21082E   23005.63031564  .00002419  00000-0  21037-3 0  9994,2 49134  70.0026 336.8662 0002900 274.7610  85.3218 14.98342204 73565,6950.155,96.106,574.036,570.005,0.0
49134.0,STARLINK-3078,PAYLOAD,2023-01-06 08:45:08,14.983283600000002,0.0003241,70.0023,335.0146,269.687,90.3917,-2.4712e-05,-3.88e-06,0.0,0 STARLINK-3078,1 49134U 21082E   23006.36467985 -.00000388  00000-0 -24712-4 0  9994,2 49134  70.0023 335.0146 0003241 269.6870  90.3917 14.98328360 73671,6950.198,96.107,574.316,569.81,0.0
49134.0,STARLINK-3078,PAYLOAD,2023-01-07 03:58:44,14.98337413,0.0003477,70.0024,332.9957,272.945,87.1311,-5.0558e-05,-6.96e-06,0.0,0 STARLINK-3078,1 49134U 21082E   23007.16579239 -.00000696  00000-0 -50558-4 0  9998,2 49134  70.0024 332.9957 0003477 272.9450  87.1311 14.98337413 73794,6950.17,96.107,574.452,569.618,0.0
